[{"OBJECT_NAME":"OBJECT G","OBJECT_ID":"2025-055G","EPOCH":"2026-03-09T23:08:21.696000","MEAN_MOTION":15.22125156,"ECCENTRICITY":0.00098901,"INCLINATION":97.6329,"RA_OF_ASC_NODE":210.2777,"ARG_OF_PERICENTER":141.6478,"MEAN_ANOMALY":218.5462,"EPHEMERIS_TYPE":0,"CLASSIFICATION_TYPE":"U","NORAD_CAT_ID":63297,"ELEMENT_SET_NO":999,"REV_AT_EPOCH":5412,"BSTAR":0.0009330302,"MEAN_MOTION_DOT":0.00021381,"MEAN_MOTION_DDOT":0},{"OBJECT_NAME":"CZ-6A DEB","OBJECT_ID":"2022-151ADD","EPOCH":"2026-03-09T18:20:47.462208","MEAN_MOTION":15.20298953,"ECCENTRICITY":0.00285544,"INCLINATION":98.6309,"RA_OF_ASC_NODE":152.6578,"ARG_OF_PERICENTER":173.2603,"MEAN_ANOMALY":186.9019,"EPHEMERIS_TYPE":0,"CLASSIFICATION_TYPE":"U","NORAD_CAT_ID":56285,"ELEMENT_SET_NO":999,"REV_AT_EPOCH":17182,"BSTAR":0.0066325049,"MEAN_MOTION_DOT":0.00148374,"MEAN_MOTION_DDOT":0}]
